{"type": "FeatureCollection", "features": [ {"type": "Feature", "properties": {"norad_id": 34538, "name": "IRIDIUM 33 DEB", "group": "iridium-33-debris", "lat": -38.18329476018051, "lon": -177.38742102729785, "alt_km": 745.803492052245, "timestamp": "2025-12-26T03:50:12.478740+00:00", "meta": {"OBJECT_NAME": "IRIDIUM 33 DEB", "OBJECT_ID": "1997-051JF", "EPOCH": "2025-12-24T17:48:32.243904", "MEAN_MOTION": 14.42715706, "ECCENTRICITY": 0.00319126, "INCLINATION": 86.2764, "RA_OF_ASC_NODE": 0.2977, "ARG_OF_PERICENTER": 286.3391, "MEAN_ANOMALY": 132.9527, "EPHEMERIS_TYPE": 0, "CLASSIFICATION_TYPE": "U", "NORAD_CAT_ID": 34538, "ELEMENT_SET_NO": 999, "REV_AT_EPOCH": 87929, "BSTAR": 0.00092856968, "MEAN_MOTION_DOT": 3.127e-05, "MEAN_MOTION_DDOT": 0}, "tle": {"line1": "1 34538U 97051JF  25358.74203986  .00003127  00000+0  92857-3 0  9993", "line2": "2 34538  86.2764   0.2977 0031912 286.3391 132.9527 14.42715706879292"}}, "geometry": {"type": "Point", "coordinates": [-177.38742102729785, -38.18329476018051]}}, {"type": "Feature", "properties": {"norad_id": 34540, "name": "IRIDIUM 33 DEB", "group": "iridium-33-debris", "lat": 56.95602499218489, "lon": -52.83754967497771, "alt_km": 630.984069030822, "timestamp": "2025-12-26T03:50:12.478751+00:00", "meta": {"OBJECT_NAME": "IRIDIUM 33 DEB", "OBJECT_ID": "1997-051JH", "EPOCH": "2025-12-25T15:06:19.054080", "MEAN_MOTION": 14.75581418, "ECCENTRICITY": 0.0018333, "INCLINATION": 86.3113, "RA_OF_ASC_NODE": 301.7134, "ARG_OF_PERICENTER": 116.628, "MEAN_ANOMALY": 4.6289, "EPHEMERIS_TYPE": 0, "CLASSIFICATION_TYPE": "U", "NORAD_CAT_ID": 34540, "ELEMENT_SET_NO": 999, "REV_AT_EPOCH": 89211, "BSTAR": 0.0017256, "MEAN_MOTION_DOT": 0.00011827, "MEAN_MOTION_DDOT": 0}, "tle": {"line1": "1 34540U 97051JH  25359.62938720  .00011827  00000+0  17256-2 0  9990", "line2": "2 34540  86.3113 301.7134 0018333 116.6280   4.6289 14.75581418892115"}}, "geometry": {"type": "Point", "coordinates": [-52.83754967497771, 56.95602499218489]}}, {"type": "Feature", "properties": {"norad_id": 34648, "name": "IRIDIUM 33 DEB", "group": "iridium-33-debris", "lat": 9.748540425533491, "lon": -82.85048333524158, "alt_km": 903.4318240694702, "timestamp": "2025-12-26T03:50:12.478762+00:00", "meta": {"OBJECT_NAME": "IRIDIUM 33 DEB", "OBJECT_ID": "1997-051JZ", "EPOCH": "2025-12-24T12:40:05.266272", "MEAN_MOTION": 14.11825085, "ECCENTRICITY": 0.01786115, "INCLINATION": 86.3902, "RA_OF_ASC_NODE": 277.1873, "ARG_OF_PERICENTER": 261.8681, "MEAN_ANOMALY": 96.2208, "EPHEMERIS_TYPE": 0, "CLASSIFICATION_TYPE": "U", "NORAD_CAT_ID": 34648, "ELEMENT_SET_NO": 999, "REV_AT_EPOCH": 85127, "BSTAR": 0.0070051894, "MEAN_MOTION_DOT": 0.00014884, "MEAN_MOTION_DDOT": 0}, "tle": {"line1": "1 34648U 97051JZ  25358.52783873  .00014884  00000+0  70052-2 0  9993", "line2": "2 34648  86.3902 277.1873 0178611 261.8681  96.2208 14.11825085851271"}}, "geometry": {"type": "Point", "coordinates": [-82.85048333524158, 9.748540425533491]}}, {"type": "Feature", "properties": {"norad_id": 34651, "name": "IRIDIUM 33 DEB", "group": "iridium-33-debris", "lat": 31.040798208298735, "lon": 137.11013220077257, "alt_km": 868.6134597293958, "timestamp": "2025-12-26T03:50:12.478772+00:00", "meta": {"OBJECT_NAME": "IRIDIUM 33 DEB", "OBJECT_ID": "1997-051KC", "EPOCH": "2025-12-25T15:53:57.959232", "MEAN_MOTION": 14.26027654, "ECCENTRICITY": 0.0142018, "INCLINATION": 86.2827, "RA_OF_ASC_NODE": 135.0795, "ARG_OF_PERICENTER": 163.1805, "MEAN_ANOMALY": 197.4168, "EPHEMERIS_TYPE": 0, "CLASSIFICATION_TYPE": "U", "NORAD_CAT_ID": 34651, "ELEMENT_SET_NO": 999, "REV_AT_EPOCH": 86080, "BSTAR": 0.0036817, "MEAN_MOTION_DOT": 9.797e-05, "MEAN_MOTION_DDOT": 0}, "tle": {"line1": "1 34651U 97051KC  25359.66247638  .00009797  00000+0  36817-2 0  9995", "line2": "2 34651  86.2827 135.0795 0142018 163.1805 197.4168 14.26027654860809"}}, "geometry": {"type": "Point", "coordinates": [137.11013220077257, 31.040798208298735]}}, {"type": "Feature", "properties": {"norad_id": 34652, "name": "IRIDIUM 33 DEB", "group": "iridium-33-debris", "lat": 29.604906801476492, "lon": -23.885606669649267, "alt_km": 698.6533269232477, "timestamp": "2025-12-26T03:50:12.478783+00:00", "meta": {"OBJECT_NAME": "IRIDIUM 33 DEB", "OBJECT_ID": "1997-051KD", "EPOCH": "2025-12-25T04:47:40.914240", "MEAN_MOTION": 14.62168979, "ECCENTRICITY": 0.0025437, "INCLINATION": 86.3321, "RA_OF_ASC_NODE": 334.4529, "ARG_OF_PERICENTER": 252.4347, "MEAN_ANOMALY": 126.6927, "EPHEMERIS_TYPE": 0, "CLASSIFICATION_TYPE": "U", "NORAD_CAT_ID": 34652, "ELEMENT_SET_NO": 999, "REV_AT_EPOCH": 88666, "BSTAR": 0.0010092, "MEAN_MOTION_DOT": 5.122e-05, "MEAN_MOTION_DDOT": 0}, "tle": {"line1": "1 34652U 97051KD  25359.19977910  .00005122  00000+0  10092-2 0  9992", "line2": "2 34652  86.3321 334.4529 0025437 252.4347 126.6927 14.62168979886663"}}, "geometry": {"type": "Point", "coordinates": [-23.885606669649267, 29.604906801476492]}}, {"type": "Feature", "properties": {"norad_id": 34690, "name": "IRIDIUM 33 DEB", "group": "iridium-33-debris", "lat": -84.0641668763021, "lon": -6.383788369920665, "alt_km": 714.0426754501641, "timestamp": "2025-12-26T03:50:12.478793+00:00", "meta": {"OBJECT_NAME": "IRIDIUM 33 DEB", "OBJECT_ID": "1997-051KM", "EPOCH": "2025-12-25T20:32:22.229376", "MEAN_MOTION": 14.55141839, "ECCENTRICITY": 0.0009316, "INCLINATION": 86.3773, "RA_OF_ASC_NODE": 31.29, "ARG_OF_PERICENTER": 345.2776, "MEAN_ANOMALY": 137.7731, "EPHEMERIS_TYPE": 0, "CLASSIFICATION_TYPE": "U", "NORAD_CAT_ID": 34690, "ELEMENT_SET_NO": 999, "REV_AT_EPOCH": 88285, "BSTAR": 0.00042559, "MEAN_MOTION_DOT": 1.859e-05, "MEAN_MOTION_DDOT": 0}, "tle": {"line1": "1 34690U 97051KM  25359.85581284  .00001859  00000+0  42559-3 0  9999", "line2": "2 34690  86.3773  31.2900 0009316 345.2776 137.7731 14.55141839882857"}}, "geometry": {"type": "Point", "coordinates": [-6.383788369920665, -84.0641668763021]}}, {"type": "Feature", "properties": {"norad_id": 34693, "name": "IRIDIUM 33 DEB", "group": "iridium-33-debris", "lat": -46.761996610094016, "lon": -66.79988890818912, "alt_km": 476.9303393725295, "timestamp": "2025-12-26T03:50:12.478803+00:00", "meta": {"OBJECT_NAME": "IRIDIUM 33 DEB", "OBJECT_ID": "1997-051KQ", "EPOCH": "2025-12-25T03:00:18.455904", "MEAN_MOTION": 15.31024765, "ECCENTRICITY": 0.00096503, "INCLINATION": 86.304, "RA_OF_ASC_NODE": 297.6587, "ARG_OF_PERICENTER": 31.5304, "MEAN_ANOMALY": 342.4375, "EPHEMERIS_TYPE": 0, "CLASSIFICATION_TYPE": "U", "NORAD_CAT_ID": 34693, "ELEMENT_SET_NO": 999, "REV_AT_EPOCH": 89104, "BSTAR": 0.0050386531, "MEAN_MOTION_DOT": 0.00153987, "MEAN_MOTION_DDOT": 0}, "tle": {"line1": "1 34693U 97051KQ  25359.12521361  .00153987  00000+0  50387-2 0  9999", "line2": "2 34693  86.3040 297.6587 0009650  31.5304 342.4375 15.31024765891042"}}, "geometry": {"type": "Point", "coordinates": [-66.79988890818912, -46.761996610094016]}}, {"type": "Feature", "properties": {"norad_id": 34696, "name": "IRIDIUM 33 DEB", "group": "iridium-33-debris", "lat": -10.72089296058139, "lon": -157.99997943231676, "alt_km": 659.5916041976998, "timestamp": "2025-12-26T03:50:12.478814+00:00", "meta": {"OBJECT_NAME": "IRIDIUM 33 DEB", "OBJECT_ID": "1997-051KT", "EPOCH": "2025-12-25T02:40:19.490880", "MEAN_MOTION": 14.65659074, "ECCENTRICITY": 0.00738807, "INCLINATION": 86.1858, "RA_OF_ASC_NODE": 21.7643, "ARG_OF_PERICENTER": 125.9017, "MEAN_ANOMALY": 294.9986, "EPHEMERIS_TYPE": 0, "CLASSIFICATION_TYPE": "U", "NORAD_CAT_ID": 34696, "ELEMENT_SET_NO": 999, "REV_AT_EPOCH": 86854, "BSTAR": 0.0042163681, "MEAN_MOTION_DOT": 0.00023946, "MEAN_MOTION_DDOT": 0}, "tle": {"line1": "1 34696U 97051KT  25359.11133670  .00023946  00000+0  42164-2 0  9998", "line2": "2 34696  86.1858  21.7643 0073880 125.9017 294.9986 14.65659074868545"}}, "geometry": {"type": "Point", "coordinates": [-157.99997943231676, -10.72089296058139]}}, {"type": "Feature", "properties": {"norad_id": 34765, "name": "IRIDIUM 33 DEB", "group": "iridium-33-debris", "lat": -42.487282576320894, "lon": 23.640127604558774, "alt_km": 773.9988804040786, "timestamp": "2025-12-26T03:50:12.478824+00:00", "meta": {"OBJECT_NAME": "IRIDIUM 33 DEB", "OBJECT_ID": "1997-051LJ", "EPOCH": "2025-12-23T02:58:27.844896", "MEAN_MOTION": 14.40490027, "ECCENTRICITY": 0.00166531, "INCLINATION": 86.3383, "RA_OF_ASC_NODE": 28.3053, "ARG_OF_PERICENTER": 176.053, "MEAN_ANOMALY": 247.6854, "EPHEMERIS_TYPE": 0, "CLASSIFICATION_TYPE": "U", "NORAD_CAT_ID": 34765, "ELEMENT_SET_NO": 999, "REV_AT_EPOCH": 87763, "BSTAR": 0.00035770807, "MEAN_MOTION_DOT": 1.159e-05, "MEAN_MOTION_DDOT": 0}, "tle": {"line1": "1 34765U 97051LJ  25357.12393339  .00001159  00000+0  35771-3 0  9993", "line2": "2 34765  86.3383  28.3053 0016653 176.0530 247.6854 14.40490027877630"}}, "geometry": {"type": "Point", "coordinates": [23.640127604558774, -42.487282576320894]}}, {"type": "Feature", "properties": {"norad_id": 34833, "name": "IRIDIUM 33 DEB", "group": "iridium-33-debris", "lat": -80.84575753316213, "lon": 22.158281672655615, "alt_km": 736.3922579698965, "timestamp": "2025-12-26T03:50:12.478834+00:00", "meta": {"OBJECT_NAME": "IRIDIUM 33 DEB", "OBJECT_ID": "1997-051MH", "EPOCH": "2025-12-25T03:41:55.955040", "MEAN_MOTION": 14.52445714, "ECCENTRICITY": 0.00212125, "INCLINATION": 86.392, "RA_OF_ASC_NODE": 45.6427, "ARG_OF_PERICENTER": 60.5009, "MEAN_ANOMALY": 2.6128, "EPHEMERIS_TYPE": 0, "CLASSIFICATION_TYPE": "U", "NORAD_CAT_ID": 34833, "ELEMENT_SET_NO": 999, "REV_AT_EPOCH": 87895, "BSTAR": 0.00071681957, "MEAN_MOTION_DOT": 2.951e-05, "MEAN_MOTION_DDOT": 0}, "tle": {"line1": "1 34833U 97051MH  25359.15411985  .00002951  00000+0  71682-3 0  9994", "line2": "2 34833  86.3920  45.6427 0021212  60.5009   2.6128 14.52445714878950"}}, "geometry": {"type": "Point", "coordinates": [22.158281672655615, -80.84575753316213]}}]}